    PK20S050  2020 08  8.4200  2.678756  0.338246   53.0281  315.9982   12.3540  20201112  14.5  4.0  P/2020 S5 (PANSTARRS)                                    MPEC 2020-UR0
    PK20S060  2020 11 23.6117  1.874832  0.479045  176.6538  242.5709   15.4601  20201112  16.0  4.0  P/2020 S6 (Leonard)                                      MPEC 2020-UR0
    PK20S070  2020 11 18.0693  2.961015  0.410523   40.4042  328.0189   16.0922  20201112  14.5  4.0  P/2020 S7 (PANSTARRS)                                    MPEC 2020-UR0
    CK20S080  2021 04 10.9258  2.363945  0.991216  160.3288   24.0517  108.5175  20201112  12.5  4.0  C/2020 S8 (Lemmon)                                       MPEC 2020-UR0
    CK20T020  2021 07 11.1247  2.054825  0.993619  150.3697   83.0522   27.8728  20201112  11.0  3.2  C/2020 T2 (Palomar)                                      MPEC 2020-UR0
    PK20T030  2021 01 20.4627  1.436581  0.591475  357.0418   74.0194    7.2955  20201112  18.0  3.2  P/2020 T3 (PANSTARRS)                                    MPEC 2020-UR0
    CK20T040  2021 07  5.2588  2.191855  0.999930   79.6050   50.6222   83.8164  20201112  13.0  3.2  C/2020 T4 (PANSTARRS)                                    MPEC 2020-UR0
    CK20T050  2020 10  9.6228  1.889019  0.997955   90.2929  237.8615   66.6040  20201112  16.0  4.0  C/2020 T5 (Lemmon)                                       MPEC 2020-UR0
    PK20U020  2020 12 25.7008  1.848955  0.510525   84.6409  342.9046    6.4216  20201112  18.0  4.0  P/2020 U2 (PANSTARRS)                                    MPEC 2020-UR0
    CK20U030  2021 02  5.9722  2.276180  0.964753  124.2616  282.6784   30.1768  20201112  15.0  4.0  C/2020 U3 (Rankin)                                       MPEC 2020-UR0
    CK20U040  2022 04  7.6655  5.353835  1.002707   69.5155  120.0212  167.0374  20201112   7.0  4.0  C/2020 U4 (PANSTARRS)                                    MPEC 2020-UR0
    CK20U050  2022 04 28.4015  3.759456  0.997331   75.3931  107.3427   97.2640  20201112   8.0  4.0  C/2020 U5 (PANSTARRS)                                    MPEC 2020-UR0
0001P         1986 01 25.4921  0.604688  0.966165  111.3674   58.4292  162.2875  20201112   4.0  6.0  1P/Halley                                                 98, 1083
0002P         2020 06 25.8525  0.336699  0.848043  186.5712  334.5452   11.7665  20201112  11.5  6.0  2P/Encke                                                 MPC118097
0004P         2021 09  9.3266  1.618165  0.577325  206.9085  193.0302    8.0084  20201112   8.0  6.0  4P/Faye                                                  MPEC 2015-A10
0006P         2021 09 17.7816  1.354839  0.612624  178.1004  138.9346   19.5122  20201112   9.0  4.0  6P/d'Arrest                                              MPEC 2015-S97
